NORAD_CAT_ID,OBJECT_NAME,OBJECT_TYPE,EPOCH,MEAN_MOTION,ECCENTRICITY,INCLINATION,RA_OF_ASC_NODE,ARG_OF_PERICENTER,MEAN_ANOMALY,BSTAR,MEAN_MOTION_DOT,MEAN_MOTION_DDOT,TLE_LINE0,TLE_LINE1,TLE_LINE2,SEMIMAJOR_AXIS,PERIOD,APOGEE,PERIGEE,DECAYED
49135.0,STARLINK-3073,PAYLOAD,2022-03-05 22:00:01,15.69797944,0.00037,70.0021,1.1845,265.8493,292.4152,-0.00058392,-0.00069489,0.0,0 STARLINK-3073,1 49135U 21082F   22064.91668981 -.00069489  00000-0 -58392-3 0  9995,2 49135  70.0021   1.1845 0003700 265.8493 292.4152 15.69797944  3706,6737.611999999999,91.732,361.97,356.9840000000001,0.0
49135.0,STARLINK-3073,PAYLOAD,2022-03-06 06:00:00,15.69739591,0.0003656,70.0021,0.2475,271.2847,10.0993,-5.9842e-05,-7.347e-05,0.0,0 STARLINK-3073,1 49135U 21082F   22065.25001157 -.00007347  00000-0 -59842-4 0  9996,2 49135  70.0021   0.2475 0003656 271.2847  10.0993 15.69739591 27278,6737.779,91.735,362.107,357.181,0.0
49135.0,STARLINK-3073,PAYLOAD,2022-03-06 22:00:00,15.69816549,0.0003488,70.002,358.3739,265.2124,182.3827,-0.00094013,-0.00111279,0.0,0 STARLINK-3073,1 49135U 21082F   22065.91667824 -.00111279  00000-0 -94013-3 0  9996,2 49135  70.0020 358.3739 0003488 265.2124 182.3827 15.69816549 27370,6737.559,91.73,361.774,357.074,0.0
49135.0,STARLINK-3073,PAYLOAD,2022-03-07 12:00:00,15.69675971,0.0003394,70.0012,356.7343,266.3547,236.7131,-0.00046394,-0.00055067,0.0,0 STARLINK-3073,1 49135U 21082F   22066.50001157 -.00055067  00000-0 -46394-3 0  9994,2 49135  70.0012 356.7343 0003394 266.3547 236.7131 15.69675971  3739,6737.9609999999975,91.739,362.11300000000006,357.539,0.0
49135.0,STARLINK-3073,PAYLOAD,2022-03-07 22:00:00,15.69681075,0.0003372,70.0016,355.5631,263.1323,73.6743,-2.9035e-05,-3.667e-05,0.0,0 STARLINK-3073,1 49135U 21082F   22066.91667824 -.00003667  00000-0 -29035-4 0  9991,2 49135  70.0016 355.5631 0003372 263.1323  73.6743 15.69681075 27536,6737.946999999999,91.738,362.084,357.539,0.0
49135.0,STARLINK-3073,PAYLOAD,2022-03-08 14:00:01,15.69694322,0.0003278,70.0013,353.6895,262.5104,240.4313,0.00078238,0.00094023,0.0,0 STARLINK-3073,1 49135U 21082F   22067.58334491  .00094023  00000-0  78238-3 0  9998,2 49135  70.0013 353.6895 0003278 262.5104 240.4313 15.69694322 27636,6737.909000000002,91.738,361.982,357.565,0.0
49135.0,STARLINK-3073,PAYLOAD,2022-03-08 22:00:00,15.69780907,0.0003344,70.0016,352.7528,262.1884,323.8405,-6.6539e-05,-8.158e-05,0.0,0 STARLINK-3073,1 49135U 21082F   22067.91667824 -.00008158  00000-0 -66539-4 0  9992,2 49135  70.0016 352.7528 0003344 262.1884 323.8405 15.69780907  3689,6737.661,91.733,361.779,357.273,0.0
49135.0,STARLINK-3073,PAYLOAD,2022-03-09 06:00:00,15.69771266,0.000346,70.001,351.8158,267.7476,41.44600000000001,-0.00015244,-0.00018387,0.0,0 STARLINK-3073,1 49135U 21082F   22068.25001157 -.00018387  00000-0 -15244-3 0  9992,2 49135  70.0010 351.8158 0003460 267.7476  41.4460 15.69771266 27744,6737.688,91.733,361.885,357.222,0.0
49135.0,STARLINK-3073,PAYLOAD,2022-03-09 14:00:01,15.69718672,0.0003583,70.0008,350.8786,260.7788,131.5766,0.00085419,0.0010289,0.0,0 STARLINK-3073,1 49135U 21082F   22068.58334491  .00102890  00000-0  85419-3 0  9990,2 49135  70.0008 350.8786 0003583 260.7788 131.5766 15.69718672  3704,6737.839,91.736,362.11800000000005,357.29,0.0
49135.0,STARLINK-3073,PAYLOAD,2022-03-09 22:00:01,15.69806859,0.0003574,70.0011,349.9417,261.4876,214.0513,-0.00011077,-0.00013447,0.0,0 STARLINK-3073,1 49135U 21082F   22068.91668981 -.00013447  00000-0 -11077-3 0  9991,2 49135  70.0011 349.9417 0003574 261.4876 214.0513 15.69806859 27847,6737.587,91.731,361.86,357.0440000000001,0.0
49135.0,STARLINK-3073,PAYLOAD,2022-03-10 14:00:01,15.69721292,0.0003408,70.001,348.0676,259.7006,22.156,0.00032279,0.00038454,0.0,0 STARLINK-3073,1 49135U 21082F   22069.58334491  .00038454  00000-0  32279-3 0  9991,2 49135  70.0010 348.0676 0003408 259.7006  22.1560 15.69721292  3687,6737.831,91.736,361.99300000000005,357.4,0.0
49135.0,STARLINK-3073,PAYLOAD,2022-03-10 20:00:01,15.6975359,0.0003559,70.0014,347.365,258.8811,355.2902,0.00015728,0.00018609,0.0,0 STARLINK-3073,1 49135U 21082F   22069.83334491  .00018609  00000-0  15728-3 0  9999,2 49135  70.0014 347.3650 0003559 258.8811 355.2902 15.69753590 27992,6737.739000000001,91.734,362.002,357.206,0.0
49135.0,STARLINK-3073,PAYLOAD,2022-03-10 22:00:01,15.6977023,0.0003557,70.0014,347.1307,260.511,104.5055,-0.0001019,-0.0001237,0.0,0 STARLINK-3073,1 49135U 21082F   22069.91668981 -.00012370  00000-0 -10190-3 0  9991,2 49135  70.0014 347.1307 0003557 260.5110 104.5055 15.69770230  3694,6737.691,91.733,361.953,357.16,0.0
49135.0,STARLINK-3073,PAYLOAD,2022-03-11 14:00:01,15.69727407,0.0003478999999999,70.0008,345.2565,257.0715,274.2441,0.0010086,0.00121846,0.0,0 STARLINK-3073,1 49135U 21082F   22070.58334491  .00121846  00000-0  10086-2 0  9992,2 49135  70.0008 345.2565 0003479 257.0715 274.2441 15.69727407  3666,6737.814,91.736,362.023,357.335,0.0
49135.0,STARLINK-3073,PAYLOAD,2022-03-11 22:00:00,15.69851326,0.0003522,70.001,344.3195,258.0555,356.4048,-0.0010375,-0.00122793,0.0,0 STARLINK-3073,1 49135U 21082F   22070.91667824 -.00122793  00000-0 -10375-2 0  9993,2 49135  70.0010 344.3195 0003522 258.0555 356.4048 15.69851326 28166,6737.459,91.728,361.697,356.951,0.0
49135.0,STARLINK-3073,PAYLOAD,2022-03-12 14:00:01,15.69730208,0.000349,70.0011,342.4459,256.1608,164.5529,0.00048832,0.00058444,0.0,0 STARLINK-3073,1 49135U 21082F   22071.58334491  .00058444  00000-0  48832-3 0  9997,2 49135  70.0011 342.4459 0003490 256.1608 164.5529 15.69730208 28269,6737.806,91.736,362.022,357.319,0.0
49135.0,STARLINK-3073,PAYLOAD,2022-03-12 22:00:00,15.69760497,0.0003618,70.0016,341.5089,258.1636,245.683,-0.00017345,-0.00020877,0.0,0 STARLINK-3073,1 49135U 21082F   22071.91667824 -.00020877  00000-0 -17345-3 0  9999,2 49135  70.0016 341.5089 0003618 258.1636 245.6830 15.69760497  3697,6737.719,91.734,362.022,357.147,0.0
49135.0,STARLINK-3073,PAYLOAD,2022-03-13 06:00:00,15.69719718,0.0003563999999999,70.001,340.5719,261.891,325.0773,-3.7909e-05,-4.73e-05,0.0,0 STARLINK-3073,1 49135U 21082F   22072.25001157 -.00004730  00000-0 -37909-4 0  9997,2 49135  70.0010 340.5719 0003564 261.8910 325.0773 15.69719718 28377,6737.8359999999975,91.736,362.102,357.3,0.0
49135.0,STARLINK-3073,PAYLOAD,2022-03-13 14:00:01,15.69683712,0.0003705,70.001,339.635,254.929,55.1407,0.00016215,0.00019138,0.0,0 STARLINK-3073,1 49135U 21082F   22072.58334491  .00019138  00000-0  16215-3 0  9995,2 49135  70.0010 339.6350 0003705 254.9290  55.1407 15.69683712  3695,6737.939,91.738,362.3,357.30800000000005,0.0
49135.0,STARLINK-3073,PAYLOAD,2022-03-13 22:00:01,15.69766965,0.0003708,70.0013,338.6981,256.7297,136.5223,-0.00076404,-0.00090517,0.0,0 STARLINK-3073,1 49135U 21082F   22072.91668981 -.00090517  00000-0 -76404-3 0  9994,2 49135  70.0013 338.6981 0003708 256.7297 136.5223 15.69766965 28472,6737.701,91.733,362.064,357.06699999999995,0.0
49135.0,STARLINK-3073,PAYLOAD,2022-03-14 06:00:00,15.69763324,0.0003661,70.001,337.7612,260.2617,216.0768,0.0005952,0.00071493,0.0,0 STARLINK-3073,1 49135U 21082F   22073.25001157  .00071493  00000-0  59520-3 0  9998,2 49135  70.0010 337.7612 0003661 260.2617 216.0768 15.69763324 28524,6737.7109999999975,91.734,362.043,357.1090000000001,0.0
49135.0,STARLINK-3073,PAYLOAD,2022-03-14 14:00:01,15.69762118,0.0003745,70.0013,336.8244,254.1555,305.4170000000001,0.0011644,0.00141236,0.0,0 STARLINK-3073,1 49135U 21082F   22073.58335648  .00141236  00000-0  11644-2 0  9996,2 49135  70.0013 336.8244 0003745 254.1555 305.4170 15.69762118  3673,6737.715,91.734,362.103,357.056,0.0
49135.0,STARLINK-3073,PAYLOAD,2022-03-14 20:00:01,15.69892611,0.0003706,70.0017,336.1215,253.9442,277.9426,-0.0008217,-0.00097756,0.0,0 STARLINK-3073,1 49135U 21082F   22073.83334491 -.00097756  00000-0 -82170-3 0  9991,2 49135  70.0017 336.1215 0003706 253.9442 277.9426 15.69892611 28617,6737.340999999999,91.726,361.703,356.709,0.0
49135.0,STARLINK-3073,PAYLOAD,2022-03-14 22:00:00,15.69886309,0.0003726,70.0018,335.8874,255.9694,26.7233,-0.0013329,-0.0015729,0.0,0 STARLINK-3073,1 49135U 21082F   22073.91667824 -.00157290  00000-0 -13329-2 0  9998,2 49135  70.0018 335.8874 0003726 255.9694  26.7233 15.69886309  3670,6737.359,91.726,361.735,356.714,0.0
49135.0,STARLINK-3073,PAYLOAD,2022-03-15 00:00:00,15.69859961,0.0003695,70.0017,335.6532,257.8731,135.6379,-0.0013142,-0.00154958,0.0,0 STARLINK-3073,1 49135U 21082F   22074.00001157 -.00154958  00000-0 -13142-2 0  9991,2 49135  70.0017 335.6532 0003695 257.8731 135.6379 15.69859961 28645,6737.435,91.728,361.789,356.81,0.0
49135.0,STARLINK-3073,PAYLOAD,2022-03-15 02:00:01,15.69832511,0.0003628,70.0017,335.4189,259.17400000000004,245.1478,-0.0012472999999999,-0.00147048,0.0,0 STARLINK-3073,1 49135U 21082F   22074.08334491 -.00147048  00000-0 -12473-2 0  9997,2 49135  70.0017 335.4189 0003628 259.1740 245.1478 15.69832511  3666,6737.513000000001,91.73,361.823,356.934,0.0
49135.0,STARLINK-3073,PAYLOAD,2022-03-15 22:00:00,15.69579414,0.0003679,70.0013,333.0771,255.3915,276.4972,0.0007525,0.00089958,0.0,0 STARLINK-3073,1 49135U 21082F   22074.91667824  .00089958  00000-0  75250-3 0  9994,2 49135  70.0013 333.0771 0003679 255.3915 276.4972 15.69579414  3678,6738.236999999999,91.744,362.581,357.62300000000016,0.0
49135.0,STARLINK-3073,PAYLOAD,2022-03-16 06:00:00,15.69664341,0.0003632,70.0008,332.1403,258.1351,356.7072,0.00088771,0.00106747,0.0,0 STARLINK-3073,1 49135U 21082F   22075.25001157  .00106747  00000-0  88771-3 0  9991,2 49135  70.0008 332.1403 0003632 258.1351 356.7072 15.69664341 28841,6737.994000000002,91.739,362.307,357.412,0.0
49135.0,STARLINK-3073,PAYLOAD,2022-03-16 14:00:01,15.69708687,0.0003818,70.0011,331.2035,252.4914,85.4396,0.0010251,0.00123783,0.0,0 STARLINK-3073,1 49135U 21082F   22075.58334491  .00123783  00000-0  10251-2 0  9993,2 49135  70.0011 331.2035 0003818 252.4914  85.4396 15.69708687  3686,6737.868,91.737,362.305,357.16,0.0
